     2.11           N: GPS NAV DATA                         RINEX VERSION / TYPE
teqc  2019Feb25                         20230316 08:07:55UTCPGM / RUN BY / DATE
Linux2.6.32-573.12.1.el6.x86_64|x86_64|gcc|Win64-MinGW64|=+ COMMENT
                                                            END OF HEADER
 2 23  3 15 12  0  0.0-6.141727790236D-04 2.842170943040D-12 0.000000000000D+00
    7.200000000000D+01-2.915625000000D+01 4.335537706623D-09 1.455203450996D+00
   -1.806765794754D-06 1.987858198117D-02 3.248453140259D-06 5.153682268143D+03
    3.024000000000D+05 2.719461917877D-07-2.735471899773D+00-4.842877388000D-07
    9.674335526221D-01 3.180625000000D+02-1.317810212405D+00-8.148910879413D-09
    9.071806500449D-11 1.000000000000D+00 2.253000000000D+03 0.000000000000D+00
    2.000000000000D+00 0.000000000000D+00-1.769512891769D-08 7.200000000000D+01
    2.989200000000D+05
20 23  3 15 12  0  0.0 4.449030384421D-04-2.387423592154D-12 0.000000000000D+00
    4.200000000000D+01-8.487500000000D+01 4.627692895554D-09-2.972167256868D+00
   -4.369765520096D-06 4.347790149041D-03 6.256625056267D-06 5.153776771545D+03
    3.024000000000D+05-6.705522537231D-08-1.773718169018D+00-4.284083843231D-08
    9.471621747521D-01 2.510000000000D+02-2.894740052925D+00-8.131767259556D-09
    1.710785541009D-10 1.000000000000D+00 2.253000000000D+03 0.000000000000D+00
    2.000000000000D+00 0.000000000000D+00-8.381903171539D-09 4.200000000000D+01
    3.023100000000D+05
 2 23  3 15 14  0  0.0-6.141522899270D-04 2.842170943040D-12 0.000000000000D+00
    7.300000000000D+01-8.187500000000D+00 4.115171314822D-09 2.505240838274D+00
   -4.414469003677D-07 1.987734728027D-02 3.000721335411D-06 5.153687753677D+03
    3.096000000000D+05 2.346932888031D-07-2.735527505289D+00-1.862645149231D-09
    9.674348107316D-01 3.217187500000D+02-1.317676713816D+00-7.785324385168D-09
   -9.107522375151D-11 1.000000000000D+00 2.253000000000D+03 0.000000000000D+00
    2.000000000000D+00 0.000000000000D+00-1.769512891769D-08 7.300000000000D+01
    3.024300000000D+05
29 23  3 15 14  0  0.0-5.909428000450D-04-1.818989403546D-12 0.000000000000D+00
    1.100000000000D+01 7.071875000000D+01 3.960165084749D-09-4.750820786298D-01
    3.628432750702D-06 2.283279900439D-03 5.673617124557D-06 5.153571886063D+03
    3.096000000000D+05-5.774199962616D-08 2.657549180608D+00-4.284083843231D-08
    9.775371451344D-01 2.789062500000D+02 2.380816029058D+00-7.921758360396D-09
   -1.042900557580D-10 1.000000000000D+00 2.253000000000D+03 0.000000000000D+00
    2.000000000000D+00 0.000000000000D+00-1.024454832077D-08 1.100000000000D+01
    3.024300000000D+05
28 23  3 15 14  0  0.0 4.358869045973D-05 1.000444171950D-11 0.000000000000D+00
    7.800000000000D+01 8.281250000000D+00 4.841630207864D-09 1.321350346883D+00
    4.172325134277D-07 9.382358985022D-04 7.795169949532D-06 5.153634723663D+03
    3.096000000000D+05-2.235174179077D-08 4.515371567693D-01 1.117587089539D-08
    9.618945205277D-01 2.308437500000D+02 1.697393780018D+00-7.944973567930D-09
   -1.117903686287D-10 1.000000000000D+00 2.253000000000D+03 0.000000000000D+00
    2.000000000000D+00 0.000000000000D+00-1.396983861923D-09 5.900000000000D+02
    3.024300000000D+05
31 23  3 15 14  0  0.0-2.116444520652D-04-9.094947017729D-13 0.000000000000D+00
    5.200000000000D+01 8.843750000000D+00 4.949848975144D-09 2.249636739817D+00
    3.837049007416D-07 1.062888198067D-02 8.089467883110D-06 5.154175588608D+03
    3.096000000000D+05-2.440065145493D-07 5.093723941819D-01-5.401670932770D-08
    9.548096653236D-01 2.234687500000D+02 5.197956357575D-01-7.943188329307D-09
   -1.432202550999D-10 1.000000000000D+00 2.253000000000D+03 0.000000000000D+00
    2.000000000000D+00 0.000000000000D+00-1.350417733192D-08 5.200000000000D+01
    3.024300000000D+05
11 23  3 15 14  0  0.0-1.311199739575D-04-1.148237060988D-11 0.000000000000D+00
    4.000000000000D+01-2.156250000000D+01 4.380896978518D-09-1.270676194410D+00
   -1.154839992523D-06 7.454733131453D-04 3.263354301453D-06 5.153717462540D+03
    3.096000000000D+05 9.313225746155D-08-2.603552236470D+00-9.126961231232D-08
    9.651396341683D-01 3.215625000000D+02-2.725825532066D+00-8.174269261474D-09
    5.714523906158D-12 1.000000000000D+00 2.253000000000D+03 0.000000000000D+00
    2.000000000000D+00 0.000000000000D+00-8.847564458847D-09 2.960000000000D+02
    3.024300000000D+05
25 23  3 15 14  0  0.0 4.278789274395D-04 3.069544618484D-12 0.000000000000D+00
    1.100000000000D+01 5.334375000000D+01 4.624121086039D-09 1.996552070099D+00
    2.495944499969D-06 1.117873273324D-02 8.398666977882D-06 5.153765670776D+03
    3.096000000000D+05-1.154839992523D-07 1.522899190750D+00-2.030283212662D-07
    9.534694729050D-01 2.129062500000D+02 1.038872693469D+00-7.951760139235D-09
   -3.600149900418D-10 1.000000000000D+00 2.253000000000D+03 0.000000000000D+00
    2.000000000000D+00 0.000000000000D+00 5.587935447693D-09 1.100000000000D+01
    3.024300000000D+05
12 23  3 15 14  0  0.0-3.518154844642D-04-4.661160346586D-12 0.000000000000D+00
    1.000000000000D+01 5.584375000000D+01 4.325537261707D-09 2.109075247838D+00
    2.652406692505D-06 8.938427665271D-03 8.476898074150D-06 5.153643636703D+03
    3.096000000000D+05 5.215406417847D-08 1.604407210526D+00-1.396983861923D-07
    9.658043241639D-01 2.137187500000D+02 1.346477398554D+00-7.782110067467D-09
   -3.796586656168D-10 1.000000000000D+00 2.253000000000D+03 0.000000000000D+00
    2.000000000000D+00 0.000000000000D+00-1.257285475731D-08 1.000000000000D+01
    3.024300000000D+05
26 23  3 15 14  0  0.0 2.419711090624D-04 0.000000000000D+00 0.000000000000D+00
    5.500000000000D+01 5.875000000000D+01 5.218788956540D-09 1.237776859403D+00
    3.347173333168D-06 7.884985301644D-03 8.163973689079D-06 5.153654619217D+03
    3.096000000000D+05 2.048909664154D-08 1.468553159248D+00 1.005828380585D-07
    9.342727063797D-01 2.086875000000D+02 4.575639579355D-01-8.318203903457D-09
   -4.778770712477D-10 1.000000000000D+00 2.253000000000D+03 0.000000000000D+00
    2.000000000000D+00 0.000000000000D+00 6.984919309616D-09 5.500000000000D+01
    3.024600000000D+05
20 23  3 15 14  0  0.0 4.448862746358D-04-2.387423592154D-12 0.000000000000D+00
    7.000000000000D+01-9.125000000000D+01 4.676266041059D-09-1.922295849349D+00
   -4.753470420837D-06 4.348446615040D-03 5.835667252541D-06 5.153774536133D+03
    3.096000000000D+05-1.862645149231D-09-1.773777193374D+00-8.009374141693D-08
    9.471634343246D-01 2.594687500000D+02-2.894492284342D+00-8.177126531450D-09
    2.157232725786D-10 1.000000000000D+00 2.253000000000D+03 0.000000000000D+00
    2.800000000000D+00 0.000000000000D+00-8.381903171539D-09 7.000000000000D+01
    3.025800000000D+05
18 23  3 15 14  0  0.0-1.807315275073D-04-1.637090463191D-11 0.000000000000D+00
    1.900000000000D+01-3.140625000000D+01 4.170173539819D-09-2.640358373204D+00
   -1.596286892891D-06 3.006156766787D-03 3.661960363388D-06 5.153686851501D+03
    3.096000000000D+05-1.862645149231D-08-2.636144000265D+00-3.166496753693D-08
    9.736599177580D-01 3.164687500000D+02-3.125911121214D+00-8.055335953827D-09
    5.285934537302D-11 1.000000000000D+00 2.253000000000D+03 0.000000000000D+00
    2.000000000000D+00 0.000000000000D+00-8.381903171539D-09 7.870000000000D+02
    3.035100000000D+05
 5 23  3 15 14  0  0.0-1.195594668388D-04-1.477928890381D-12 0.000000000000D+00
    6.900000000000D+01-8.256250000000D+01 4.261249131332D-09-1.782136342389D-01
   -4.259869456291D-06 5.784005275927D-03 6.884336471558D-06 5.153634302139D+03
    3.096000000000D+05-4.284083843231D-08-1.652591483743D+00 8.568167686462D-08
    9.646564133088D-01 2.500000000000D+02 1.129681705012D+00-8.067836176906D-09
    1.989368531019D-10 1.000000000000D+00 2.253000000000D+03 0.000000000000D+00
    2.000000000000D+00 0.000000000000D+00-1.117587089539D-08 6.900000000000D+01
    3.043800000000D+05
 4 23  3 15 14  0  0.0-6.512273102999D-06 8.640199666843D-12 0.000000000000D+00
    1.560000000000D+02-3.618750000000D+01 4.563047273365D-09-1.030316471834D+00
   -1.946464180946D-06 2.344167558476D-03 8.460134267807D-06 5.153696023941D+03
    3.096000000000D+05 4.097819328308D-08-5.255450910625D-01 3.911554813385D-08
    9.626789825523D-01 2.142500000000D+02-3.008585515503D+00-7.881399533005D-09
    4.296607514220D-10 1.000000000000D+00 2.253000000000D+03 0.000000000000D+00
    2.000000000000D+00 0.000000000000D+00-4.656612873077D-09 9.240000000000D+02
    3.056100000000D+05
